start=new Date('2022-01-05T00:00:00.000Z').valueOf();
sats=[{"REF_FRAME":"TEME","MEAN_MOTION_DDOT":"0.0000000000000","OBJECT_TYPE":"PAYLOAD","ELEMENT_SET_NO":"999","APOAPSIS":"333.716","MEAN_MOTION_DOT":"-0.00433187","SITE":"AFWTR","CENTER_NAME":"EARTH","SEMIMAJOR_AXIS":"6710.999","TLE_LINE2":"2 50197  53.2206 283.6897 0001269  89.7940 270.3228 15.79144854  5962","MEAN_ANOMALY":"270.3228","PERIAPSIS":"332.013","ARG_OF_PERICENTER":"89.7940","REV_AT_EPOCH":"596","RCS_SIZE":"LARGE","RA_OF_ASC_NODE":"283.6897","PERIOD":"91.189","BSTAR":"-0.00249330000000","MEAN_ELEMENT_THEORY":"SGP4","TLE_LINE1":"1 50197U 21125AT  22004.07780553 -.00433187  00000-0 -24933-2 0  9997","COUNTRY_CODE":"US","LAUNCH_DATE":"2021-12-18","DECAY_DATE":null,"ECCENTRICITY":"0.00012690","INCLINATION":"53.2206","OBJECT_NAME":"STARLINK-3267","FILE":"3264067","NORAD_CAT_ID":"50197","EPHEMERIS_TYPE":"0","GP_ID":"193216830","MEAN_MOTION":"15.79144854","CLASSIFICATION_TYPE":"U","EPOCH":"2022-01-04T01:52:02.397792","OBJECT_ID":"2021-125AT","TIME_SYSTEM":"UTC"},{"REF_FRAME":"TEME","MEAN_MOTION_DDOT":"0.0000000000000","OBJECT_TYPE":"PAYLOAD","APOAPSIS":"324.774","MEAN_MOTION_DOT":"-0.00824444","ELEMENT_SET_NO":"999","SITE":"AFWTR","SEMIMAJOR_AXIS":"6702.148","CENTER_NAME":"EARTH","TLE_LINE2":"2 50198  53.2176 293.6558 0001135 100.8374  67.6263 15.82274187  5112","MEAN_ANOMALY":"67.6263","ARG_OF_PERICENTER":"100.8374","REV_AT_EPOCH":"511","PERIAPSIS":"323.252","RCS_SIZE":"LARGE","RA_OF_ASC_NODE":"293.6558","PERIOD":"91.008","BSTAR":"-0.00429690000000","TLE_LINE1":"1 50198U 21125AU  22002.08334491 -.00824444  00000-0 -42969-2 0  9992","MEAN_ELEMENT_THEORY":"SGP4","DECAY_DATE":null,"COUNTRY_CODE":"US","LAUNCH_DATE":"2021-12-18","OBJECT_NAME":"STARLINK-3264","INCLINATION":"53.2176","ECCENTRICITY":"0.00011350","FILE":"3256392","GP_ID":"192994657","CLASSIFICATION_TYPE":"U","MEAN_MOTION":"15.82274187","EPHEMERIS_TYPE":"0","NORAD_CAT_ID":"50198","EPOCH":"2022-01-02T02:00:01.000224","OBJECT_ID":"2021-125AU","TIME_SYSTEM":"UTC"},{"OBJECT_ID":"2021-125AV","EPOCH":"2022-01-02T10:00:00.999936","TIME_SYSTEM":"UTC","FILE":"3258836","MEAN_MOTION":"15.81683319","GP_ID":"193066687","CLASSIFICATION_TYPE":"U","EPHEMERIS_TYPE":"0","NORAD_CAT_ID":"50199","DECAY_DATE":null,"COUNTRY_CODE":"US","LAUNCH_DATE":"2021-12-18","OBJECT_NAME":"STARLINK-3270","INCLINATION":"53.2174","ECCENTRICITY":"0.00010500","BSTAR":"-0.00445030000000","TLE_LINE1":"1 50199U 21125AV  22002.41667824 -.00829910  00000-0 -44503-2 0  9998","MEAN_ELEMENT_THEORY":"SGP4","ARG_OF_PERICENTER":"82.4410","REV_AT_EPOCH":"517","PERIAPSIS":"324.978","RCS_SIZE":"LARGE","RA_OF_ASC_NODE":"291.9646","PERIOD":"91.042","SEMIMAJOR_AXIS":"6703.817","CENTER_NAME":"EARTH","TLE_LINE2":"2 50199  53.2174 291.9646 0001050  82.4410 195.0049 15.81683319  5176","MEAN_ANOMALY":"195.0049","APOAPSIS":"326.386","MEAN_MOTION_DOT":"-0.00829910","ELEMENT_SET_NO":"999","SITE":"AFWTR","REF_FRAME":"TEME","MEAN_MOTION_DDOT":"0.0000000000000","OBJECT_TYPE":"PAYLOAD"},{"COUNTRY_CODE":"US","LAUNCH_DATE":"2021-12-18","DECAY_DATE":null,"ECCENTRICITY":"0.00011580","OBJECT_NAME":"STARLINK-3235","INCLINATION":"53.2176","BSTAR":"-0.00432860000000","MEAN_ELEMENT_THEORY":"SGP4","TLE_LINE1":"1 50200U 21125AW  22002.16667824 -.00823803  00000-0 -43286-2 0  9995","OBJECT_ID":"2021-125AW","EPOCH":"2022-01-02T04:00:00.999936","TIME_SYSTEM":"UTC","FILE":"3256392","NORAD_CAT_ID":"50200","EPHEMERIS_TYPE":"0","GP_ID":"192994161","MEAN_MOTION":"15.82099959","CLASSIFICATION_TYPE":"U","ELEMENT_SET_NO":"999","APOAPSIS":"325.281","MEAN_MOTION_DOT":"-0.00823803","SITE":"AFWTR","REF_FRAME":"TEME","MEAN_MOTION_DDOT":"0.0000000000000","OBJECT_TYPE":"PAYLOAD","PERIAPSIS":"323.729","ARG_OF_PERICENTER":"105.9979","REV_AT_EPOCH":"513","RCS_SIZE":"LARGE","RA_OF_ASC_NODE":"293.2413","PERIOD":"91.018","CENTER_NAME":"EARTH","SEMIMAJOR_AXIS":"6702.640","TLE_LINE2":"2 50200  53.2176 293.2413 0001158 105.9979 176.0177 15.82099959  5137","MEAN_ANOMALY":"176.0177"},{"INCLINATION":"53.2177","OBJECT_NAME":"STARLINK-3255","ECCENTRICITY":"0.00011360","DECAY_DATE":null,"COUNTRY_CODE":"US","LAUNCH_DATE":"2021-12-18","TLE_LINE1":"1 50201U 21125AX  22002.08334491 -.00825176  00000-0 -42944-2 0  9993","MEAN_ELEMENT_THEORY":"SGP4","BSTAR":"-0.00429440000000","EPOCH":"2022-01-02T02:00:01.000224","OBJECT_ID":"2021-125AX","TIME_SYSTEM":"UTC","GP_ID":"192994658","MEAN_MOTION":"15.82307125","CLASSIFICATION_TYPE":"U","NORAD_CAT_ID":"50201","EPHEMERIS_TYPE":"0","FILE":"3256392","SITE":"AFWTR","APOAPSIS":"324.681","MEAN_MOTION_DOT":"-0.00825176","ELEMENT_SET_NO":"999","OBJECT_TYPE":"PAYLOAD","REF_FRAME":"TEME","MEAN_MOTION_DDOT":"0.0000000000000","RCS_SIZE":"LARGE","RA_OF_ASC_NODE":"293.6533","PERIOD":"91.006","ARG_OF_PERICENTER":"93.7782","REV_AT_EPOCH":"511","PERIAPSIS":"323.159","TLE_LINE2":"2 50201  53.2177 293.6533 0001136  93.7782  75.9546 15.82307125  5110","MEAN_ANOMALY":"75.9546","SEMIMAJOR_AXIS":"6702.055","CENTER_NAME":"EARTH"},{"OBJECT_TYPE":"PAYLOAD","REF_FRAME":"TEME","MEAN_MOTION_DDOT":"0.0000122560000","SITE":"AFWTR","ELEMENT_SET_NO":"999","APOAPSIS":"312.296","MEAN_MOTION_DOT":"-0.00063814","TLE_LINE2":"2 50202  53.2183 278.9493 0017151 236.7937 123.1447 15.90515507  6058","MEAN_ANOMALY":"123.1447","CENTER_NAME":"EARTH","SEMIMAJOR_AXIS":"6678.976","RCS_SIZE":"LARGE","PERIOD":"90.537","RA_OF_ASC_NODE":"278.9493","PERIAPSIS":"289.386","ARG_OF_PERICENTER":"236.7937","REV_AT_EPOCH":"605","MEAN_ELEMENT_THEORY":"SGP4","TLE_LINE1":"1 50202U 21125AY  22004.91674315 -.00063814  12256-4 -18890-3 0  9997","BSTAR":"-0.00018890000000","ECCENTRICITY":"0.00171510","OBJECT_NAME":"STARLINK-3256","INCLINATION":"53.2183","COUNTRY_CODE":"US","LAUNCH_DATE":"2021-12-18","DECAY_DATE":null,"EPHEMERIS_TYPE":"0","NORAD_CAT_ID":"50202","MEAN_MOTION":"15.90515507","GP_ID":"193218082","CLASSIFICATION_TYPE":"U","FILE":"3264067","OBJECT_ID":"2021-125AY","EPOCH":"2022-01-04T22:00:06.608160","TIME_SYSTEM":"UTC"},{"ECCENTRICITY":"0.00011060","INCLINATION":"53.2177","OBJECT_NAME":"STARLINK-3257","COUNTRY_CODE":"US","LAUNCH_DATE":"2021-12-18","DECAY_DATE":null,"MEAN_ELEMENT_THEORY":"SGP4","TLE_LINE1":"1 50203U 21125AZ  22002.16667824 -.00824748  00000-0 -43313-2 0  9998","BSTAR":"-0.00433130000000","TIME_SYSTEM":"UTC","OBJECT_ID":"2021-125AZ","EPOCH":"2022-01-02T04:00:00.999936","EPHEMERIS_TYPE":"0","NORAD_CAT_ID":"50203","CLASSIFICATION_TYPE":"U","GP_ID":"192994661","MEAN_MOTION":"15.82113851","FILE":"3256392","SITE":"AFWTR","ELEMENT_SET_NO":"999","MEAN_MOTION_DOT":"-0.00824748","APOAPSIS":"325.207","OBJECT_TYPE":"PAYLOAD","MEAN_MOTION_DDOT":"0.0000000000000","REF_FRAME":"TEME","RA_OF_ASC_NODE":"293.2399","PERIOD":"91.017","RCS_SIZE":"MEDIUM","PERIAPSIS":"323.724","REV_AT_EPOCH":"252","ARG_OF_PERICENTER":"93.0233","MEAN_ANOMALY":"189.6887","TLE_LINE2":"2 50203  53.2177 293.2399 0001106  93.0233 189.6887 15.82113851  2523","CENTER_NAME":"EARTH","SEMIMAJOR_AXIS":"6702.601"},{"EPOCH":"2022-01-04T21:34:37.940736","OBJECT_ID":"2021-125BA","TIME_SYSTEM":"UTC","GP_ID":"193216581","CLASSIFICATION_TYPE":"U","MEAN_MOTION":"15.78015680","EPHEMERIS_TYPE":"0","NORAD_CAT_ID":"50204","FILE":"3264067","OBJECT_NAME":"STARLINK-3254","INCLINATION":"53.2194","ECCENTRICITY":"0.00035610","DECAY_DATE":null,"LAUNCH_DATE":"2021-12-18","COUNTRY_CODE":"US","TLE_LINE1":"1 50204U 21125BA  22004.89905024 -.00293563  00000-0 -17475-2 0  9993","MEAN_ELEMENT_THEORY":"SGP4","BSTAR":"-0.00174750000000","RCS_SIZE":"LARGE","PERIOD":"91.254","RA_OF_ASC_NODE":"279.5718","ARG_OF_PERICENTER":"169.4568","REV_AT_EPOCH":"609","PERIAPSIS":"333.674","TLE_LINE2":"2 50204  53.2194 279.5718 0003561 169.4568 190.6530 15.78015680  6090","MEAN_ANOMALY":"190.6530","SEMIMAJOR_AXIS":"6714.200","CENTER_NAME":"EARTH","SITE":"AFWTR","APOAPSIS":"338.456","MEAN_MOTION_DOT":"-0.00293563","ELEMENT_SET_NO":"999","OBJECT_TYPE":"PAYLOAD","REF_FRAME":"TEME","MEAN_MOTION_DDOT":"0.0000000000000"},{"SITE":"AFWTR","MEAN_MOTION_DOT":"-0.00401287","APOAPSIS":"282.190","ELEMENT_SET_NO":"999","OBJECT_TYPE":"PAYLOAD","MEAN_MOTION_DDOT":"0.0000670530000","REF_FRAME":"TEME","RA_OF_ASC_NODE":"277.9704","PERIOD":"90.031","RCS_SIZE":"LARGE","REV_AT_EPOCH":"606","ARG_OF_PERICENTER":"258.5098","PERIAPSIS":"269.724","MEAN_ANOMALY":"101.4882","TLE_LINE2":"2 50205  53.2166 277.9704 0009367 258.5098 101.4882 15.99445962  6065","SEMIMAJOR_AXIS":"6654.092","CENTER_NAME":"EARTH","INCLINATION":"53.2166","OBJECT_NAME":"STARLINK-3260","ECCENTRICITY":"0.00093670","DECAY_DATE":null,"COUNTRY_CODE":"US","LAUNCH_DATE":"2021-12-18","TLE_LINE1":"1 50205U 21125BB  22004.88397072 -.00401287  67053-4 -77676-3 0  9990","MEAN_ELEMENT_THEORY":"SGP4","BSTAR":"-0.00077676000000","TIME_SYSTEM":"UTC","OBJECT_ID":"2021-125BB","EPOCH":"2022-01-04T21:12:55.070208","CLASSIFICATION_TYPE":"U","GP_ID":"193216831","MEAN_MOTION":"15.99445962","NORAD_CAT_ID":"50205","EPHEMERIS_TYPE":"0","FILE":"3264067"},{"TIME_SYSTEM":"UTC","OBJECT_ID":"2021-125BC","EPOCH":"2022-01-04T01:50:15.776736","EPHEMERIS_TYPE":"0","NORAD_CAT_ID":"50206","CLASSIFICATION_TYPE":"U","GP_ID":"193217583","MEAN_MOTION":"15.79320372","FILE":"3264067","ECCENTRICITY":"0.00015330","INCLINATION":"53.2200","OBJECT_NAME":"STARLINK-3258","LAUNCH_DATE":"2021-12-18","COUNTRY_CODE":"US","DECAY_DATE":null,"MEAN_ELEMENT_THEORY":"SGP4","TLE_LINE1":"1 50206U 21125BC  22004.07657149 -.00418391  00000-0 -23846-2 0  9994","BSTAR":"-0.00238460000000","PERIOD":"91.178","RA_OF_ASC_NODE":"283.6801","RCS_SIZE":"LARGE","PERIAPSIS":"331.338","REV_AT_EPOCH":"383","ARG_OF_PERICENTER":"90.5213","MEAN_ANOMALY":"269.5985","TLE_LINE2":"2 50206  53.2200 283.6801 0001533  90.5213 269.5985 15.79320372  3834","CENTER_NAME":"EARTH","SEMIMAJOR_AXIS":"6710.502","SITE":"AFWTR","ELEMENT_SET_NO":"999","MEAN_MOTION_DOT":"-0.00418391","APOAPSIS":"333.396","OBJECT_TYPE":"PAYLOAD","MEAN_MOTION_DDOT":"0.0000000000000","REF_FRAME":"TEME"}];
